ASTROCAST 0.1           
1 43798U 18099AS  26187.81992037  .00031413  00000+0  54110-3 0  9996
2 43798  97.4362 266.9470 0005631 150.9433 209.2133 15.50999199417478
ASTROCAST-0402          
1 55109U 23001DE  26187.22172007  .00009716  00000+0  34867-3 0  9994
2 55109  97.5576 280.7088 0005794 159.4162 200.7312 15.28889718147449
ASTROCAST-0401          
1 55110U 23001DF  26187.23435539  .00012552  00000+0  45633-3 0  9994
2 55110  97.5555 280.5361 0009376 134.6860 225.5145 15.28365832194111
ASTROCAST-0403          
1 55111U 23001DG  26187.20771216  .00018653  00000+0  60390-3 0  9992
2 55111  97.5618 281.7703 0004038 249.0238 111.0572 15.32078959147471
ASTROCAST-0404          
1 55112U 23001DH  26187.71255508  .00005862  00000+0  21260-3 0  9991
2 55112  97.5663 282.1326 0004831 282.3347  77.7352 15.28735189147519
