{"fetched_at":"2026-07-07T07:58:21.311Z","source":"https://celestrak.org/NORAD/elements/gp.php?NAME=ASTROCAST&FORMAT=JSON","constellation":"astrocast","records":[{"OBJECT_NAME":"ASTROCAST 0.1","OBJECT_ID":"2018-099AS","EPOCH":"2026-07-06T19:40:41.119968","CLASSIFICATION_TYPE":"U","MEAN_MOTION":15.50999199,"ECCENTRICITY":0.0005631,"INCLINATION":97.4362,"RA_OF_ASC_NODE":266.947,"ARG_OF_PERICENTER":150.9433,"MEAN_ANOMALY":209.2133,"EPHEMERIS_TYPE":0,"NORAD_CAT_ID":43798,"ELEMENT_SET_NO":999,"REV_AT_EPOCH":41747,"BSTAR":0.0005411,"MEAN_MOTION_DOT":0.00031413,"MEAN_MOTION_DDOT":0},{"OBJECT_NAME":"ASTROCAST-0402","OBJECT_ID":"2023-001DE","EPOCH":"2026-07-06T05:19:16.614048","CLASSIFICATION_TYPE":"U","MEAN_MOTION":15.28889718,"ECCENTRICITY":0.0005794,"INCLINATION":97.5576,"RA_OF_ASC_NODE":280.7088,"ARG_OF_PERICENTER":159.4162,"MEAN_ANOMALY":200.7312,"EPHEMERIS_TYPE":0,"NORAD_CAT_ID":55109,"ELEMENT_SET_NO":999,"REV_AT_EPOCH":14744,"BSTAR":0.0003486718,"MEAN_MOTION_DOT":0.00009716,"MEAN_MOTION_DDOT":0},{"OBJECT_NAME":"ASTROCAST-0401","OBJECT_ID":"2023-001DF","EPOCH":"2026-07-06T05:37:28.305696","CLASSIFICATION_TYPE":"U","MEAN_MOTION":15.28365832,"ECCENTRICITY":0.00093766,"INCLINATION":97.5555,"RA_OF_ASC_NODE":280.5361,"ARG_OF_PERICENTER":134.686,"MEAN_ANOMALY":225.5145,"EPHEMERIS_TYPE":0,"NORAD_CAT_ID":55110,"ELEMENT_SET_NO":999,"REV_AT_EPOCH":19411,"BSTAR":0.00045633192,"MEAN_MOTION_DOT":0.00012552,"MEAN_MOTION_DDOT":0},{"OBJECT_NAME":"ASTROCAST-0403","OBJECT_ID":"2023-001DG","EPOCH":"2026-07-06T04:59:06.330624","CLASSIFICATION_TYPE":"U","MEAN_MOTION":15.32078959,"ECCENTRICITY":0.00040389,"INCLINATION":97.5618,"RA_OF_ASC_NODE":281.7703,"ARG_OF_PERICENTER":249.0238,"MEAN_ANOMALY":111.0572,"EPHEMERIS_TYPE":0,"NORAD_CAT_ID":55111,"ELEMENT_SET_NO":999,"REV_AT_EPOCH":14747,"BSTAR":0.0006039018,"MEAN_MOTION_DOT":0.00018653,"MEAN_MOTION_DDOT":0},{"OBJECT_NAME":"ASTROCAST-0404","OBJECT_ID":"2023-001DH","EPOCH":"2026-07-06T17:06:04.758912","CLASSIFICATION_TYPE":"U","MEAN_MOTION":15.28735189,"ECCENTRICITY":0.0004831,"INCLINATION":97.5663,"RA_OF_ASC_NODE":282.1326,"ARG_OF_PERICENTER":282.3347,"MEAN_ANOMALY":77.7352,"EPHEMERIS_TYPE":0,"NORAD_CAT_ID":55112,"ELEMENT_SET_NO":999,"REV_AT_EPOCH":14751,"BSTAR":0.0002126,"MEAN_MOTION_DOT":0.00005862,"MEAN_MOTION_DDOT":0}]}
